#cV2023  8  8  5 21  0.00000000   14308 ORBIT ITRF  FIT CNES
## 2274 192060.00000000    60.00000000 60164 0.2229166666667
+    1   L39  0  0  0  0  0  0  0  0  0  0  0  0  0  0  0  0
+          0  0  0  0  0  0  0  0  0  0  0  0  0  0  0  0  0
+          0  0  0  0  0  0  0  0  0  0  0  0  0  0  0  0  0
+          0  0  0  0  0  0  0  0  0  0  0  0  0  0  0  0  0
+          0  0  0  0  0  0  0  0  0  0  0  0  0  0  0  0  0
++
++
++         0  0  0  0  0  0  0  0  0  0  0  0  0  0  0  0  0
++         0  0  0  0  0  0  0  0  0  0  0  0  0  0  0  0  0
++         0  0  0  0  0  0  0  0  0  0  0  0  0  0  0  0  0
%c L  cc TAI ccc cccc cccc cccc cccc ccccc ccccc ccccc ccccc
%c cc cc ccc ccc cccc cccc cccc cccc ccccc ccccc ccccc ccccc
%f  1.2500000  1.025000000  0.00000000000  0.000000000000000
%f  0.0000000  0.000000000  0.00000000000  0.000000000000000
%i    0    0    0    0      0      0      0      0         0
%i    0    0    0    0      0      0      0      0         0
/* CCCCCCCCCCCCCCCCCCCCCCCCCCCCCCCCCCCCCCCCCCCCCCCCCCCCCCCCC
/* CCCCCCCCCCCCCCCCCCCCCCCCCCCCCCCCCCCCCCCCCCCCCCCCCCCCCCCCC
/* CCCCCCCCCCCCCCCCCCCCCCCCCCCCCCCCCCCCCCCCCCCCCCCCCCCCCCCCC
/* CCCCCCCCCCCCCCCCCCCCCCCCCCCCCCCCCCCCCCCCCCCCCCCCCCCCCCCCC
*  2023  8 17 12 25  0.00000000
PL39  -1524.092899  -2740.115677  -7050.475336 999999.999999
VL39  61520.259100 -32424.151417   -697.054790 999999.999999
*  2023  8 17 12 26  0.00000000
PL39  -1153.648103  -2931.942157  -7043.662159 999999.999999
VL39  61930.855100 -31502.121916   2967.528591 999999.999999
*  2023  8 17 12 27  0.00000000
PL39   -781.288715  -3117.951798  -7014.883351 999999.999999
VL39  62158.430623 -30485.430950   6622.933576 999999.999999
*  2023  8 17 12 28  0.00000000
PL39   -408.112779  -3297.580984  -6964.227943 999999.999999
VL39  62203.102236 -29375.577472  10257.847380 999999.999999
*  2023  8 17 12 29  0.00000000
PL39    -35.216024  -3470.275953  -6891.852679 999999.999999
VL39  62065.523630 -28174.346481  13861.016197 999999.999999
*  2023  8 17 12 30  0.00000000
PL39    336.311343  -3635.494511  -6797.981571 999999.999999
VL39  61746.881446 -26883.809489  17421.277587 999999.999999
*  2023  8 17 12 31  0.00000000
PL39    705.387820  -3792.707752  -6682.905251 999999.999999
VL39  61248.889990 -25506.324373  20927.592783 999999.999999
*  2023  8 17 12 32  0.00000000
PL39   1070.943761  -3941.401775  -6546.980129 999999.999999
VL39  60573.784847 -24044.534442  24369.078855 999999.999999
*  2023  8 17 12 33  0.00000000
PL39   1431.924477  -4081.079391  -6390.627367 999999.999999
VL39  59724.315519 -22501.366650  27735.040794 999999.999999
*  2023  8 17 12 34  0.00000000
PL39   1787.293296  -4211.261816  -6214.331654 999999.999999
VL39  58703.737048 -20880.028718  31015.003714 999999.999999
*  2023  8 17 12 35  0.00000000
PL39   2136.034572  -4331.490346  -6018.639784 999999.999999
VL39  57515.800236 -19184.004916  34198.745268 999999.999999
*  2023  8 17 12 36  0.00000000
PL39   2477.156621  -4441.327996  -5804.159050 999999.999999
VL39  56164.739955 -17417.050479  37276.327801 999999.999999
*  2023  8 17 12 37  0.00000000
PL39   2809.694585  -4540.361112  -5571.555435 999999.999999
VL39  54655.261614 -15583.184995  40238.129705 999999.999999
*  2023  8 17 12 38  0.00000000
PL39   3132.713216  -4628.200931  -5321.551630 999999.999999
VL39  52992.526005 -13686.684839  43074.875789 999999.999999
*  2023  8 17 12 39  0.00000000
PL39   3445.309554  -4704.485095  -5054.924863 999999.999999
VL39  51182.132792 -11732.074921  45777.666346 999999.999999
*  2023  8 17 12 40  0.00000000
PL39   3746.615510  -4768.879124  -4772.504565 999999.999999
VL39  49230.103335  -9724.119926  48338.005246 999999.999999
*  2023  8 17 12 41  0.00000000
PL39   4035.800346  -4821.077819  -4475.169863 999999.999999
VL39  47142.862759  -7667.814510  50747.827807 999999.999999
*  2023  8 17 12 42  0.00000000
PL39   4312.073036  -4860.806611  -4163.846908 999999.999999
VL39  44927.220554  -5568.372050  52999.528253 999999.999999
*  2023  8 17 12 43  0.00000000
PL39   4574.684512  -4887.822836  -3839.506043 999999.999999
VL39  42590.349484  -3431.212010  55085.986212 999999.999999
*  2023  8 17 12 44  0.00000000
PL39   4822.929777  -4901.916931  -3503.158814 999999.999999
VL39  40139.762835  -1261.946039  57000.591821 999999.999999
*  2023  8 17 12 45  0.00000000
PL39   5056.149875  -4902.913544  -3155.854835 999999.999999
VL39  37583.290243    933.637057  58737.269040 999999.999999
*  2023  8 17 12 46  0.00000000
PL39   5273.733712  -4890.672543  -2798.678522 999999.999999
VL39  34929.052457   3149.587201  60290.497017 999999.999999
*  2023  8 17 12 47  0.00000000
PL39   5475.119730  -4865.089944  -2432.745700 999999.999999
VL39  32185.435288   5379.809769  61655.329852 999999.999999
*  2023  8 17 12 48  0.00000000
PL39   5659.797410  -4826.098717  -2059.200100 999999.999999
VL39  29361.062421   7618.083417  62827.414816 999999.999999
*  2023  8 17 12 49  0.00000000
PL39   5827.308622  -4773.669494  -1679.209746 999999.999999
VL39  26464.766993   9858.078906  63803.008463 999999.999999
*  2023  8 17 12 50  0.00000000
PL39   5977.248786  -4707.811157  -1293.963264 999999.999999
VL39  23505.562326  12093.378587  64578.990357 999999.999999
*  2023  8 17 12 51  0.00000000
PL39   6109.267870  -4628.571312   -904.666100 999999.999999
VL39  20492.612143  14317.496311  65152.874513 999999.999999
*  2023  8 17 12 52  0.00000000
PL39   6223.071202  -4536.036632   -512.536692 999999.999999
VL39  17435.200346  16523.897867  65522.818854 999999.999999
*  2023  8 17 12 53  0.00000000
PL39   6318.420093  -4430.333092   -118.802579 999999.999999
VL39  14342.699983  18706.022087  65687.632435 999999.999999
*  2023  8 17 12 54  0.00000000
PL39   6395.132284  -4311.626057    275.303521 999999.999999
VL39  11224.541858  20857.302076  65646.779858 999999.999999
*  2023  8 17 12 55  0.00000000
PL39   6453.082195  -4180.120261    668.547648 999999.999999
VL39   8090.183564  22971.186486  65400.383486 999999.999999
*  2023  8 17 12 56  0.00000000
PL39   6492.200995  -4036.059642   1059.698553 999999.999999
VL39   4949.078345  25041.161583  64949.223844 999999.999999
*  2023  8 17 12 57  0.00000000
PL39   6512.476480  -3879.727053   1447.531637 999999.999999
VL39   1810.643157  27060.773903  64294.736986 999999.999999
*  2023  8 17 12 58  0.00000000
PL39   6513.952758  -3711.443830   1830.832870 999999.999999
VL39  -1315.772857  29023.652206  63439.008205 999999.999999
*  2023  8 17 12 59  0.00000000
PL39   6496.729755  -3531.569239   2208.402662 999999.999999
VL39  -4420.918223  30923.528369  62384.763452 999999.999999
*  2023  8 17 13  0  0.00000000
PL39   6460.962541  -3340.499792   2579.059673 999999.999999
VL39  -7495.667924  32754.258220  61135.359784 999999.999999
*  2023  8 17 13  1  0.00000000
PL39   6406.860482  -3138.668442   2941.644575 999999.999999
VL39 -10531.052534  34509.842946  59694.773941 999999.999999
*  2023  8 17 13  2  0.00000000
PL39   6334.686224  -2926.543645   3295.023720 999999.999999
VL39 -13518.287216  36184.450145  58067.587477 999999.999999
*  2023  8 17 13  3  0.00000000
PL39   6244.754497  -2704.628302   3638.092723 999999.999999
VL39 -16448.798914  37772.433466  56258.969093 999999.999999
*  2023  8 17 13  4  0.00000000
PL39   6137.430772  -2473.458589   3969.779923 999999.999999
VL39 -19314.251651  39268.351298  54274.655762 999999.999999
*  2023  8 17 13  5  0.00000000
PL39   6013.129764  -2233.602671   4289.049738 999999.999999
VL39 -22106.570724  40666.985050  52120.932606 999999.999999
*  2023  8 17 13  6  0.00000000
PL39   5872.313792  -1985.659310   4594.905885 999999.999999
VL39 -24817.965807  41963.356941  49804.611185 999999.999999
*  2023  8 17 13  7  0.00000000
PL39   5715.491011  -1730.256369   4886.394473 999999.999999
VL39 -27440.952996  43152.747204  47333.006179 999999.999999
*  2023  8 17 13  8  0.00000000
PL39   5543.213508  -1468.049217   5162.606947 999999.999999
VL39 -29968.375709  44230.710414  44713.910319 999999.999999
*  2023  8 17 13  9  0.00000000
PL39   5356.075276  -1199.719031   5422.682875 999999.999999
VL39 -32393.424046  45193.090738  41955.567798 999999.999999
*  2023  8 17 13 10  0.00000000
PL39   5154.710084   -925.971019   5665.812577 999999.999999
VL39 -34709.652475  46036.036276  39066.646425 999999.999999
*  2023  8 17 13 11  0.00000000
PL39   4939.789242   -647.532556   5891.239576 999999.999999
VL39 -36910.995653  46756.012372  36056.208604 999999.999999
*  2023  8 17 13 12  0.00000000
PL39   4712.019276   -365.151242   6098.262880 999999.999999
VL39 -38991.782259  47349.813924  32933.681839 999999.999999
*  2023  8 17 13 13  0.00000000
PL39   4472.139525    -79.592889   6286.239085 999999.999999
VL39 -40946.747598  47814.577114  29708.828936 999999.999999
*  2023  8 17 13 14  0.00000000
PL39   4220.919669    208.360559   6454.584292 999999.999999
VL39 -42771.045079  48147.790337  26391.717286 999999.999999
*  2023  8 17 13 15  0.00000000
PL39   3959.157186    497.913171   6602.775840 999999.999999
VL39 -44460.256044  48347.304110  22992.687508 999999.999999
*  2023  8 17 13 16  0.00000000
PL39   3687.674764    788.257228   6730.353856 999999.999999
VL39 -46010.398153  48411.340221  19522.321776 999999.999999
*  2023  8 17 13 17  0.00000000
PL39   3407.317654   1078.575475   6836.922601 999999.999999
VL39 -47417.932596  48338.500004  15991.411431 999999.999999
*  2023  8 17 13 18  0.00000000
PL39   3118.950997   1368.043424   6922.151630 999999.999999
VL39 -48679.769689  48127.771111  12410.923975 999999.999999
*  2023  8 17 13 19  0.00000000
PL39   2823.457116   1655.831684   6985.776749 999999.999999
VL39 -49793.272625  47778.533039   8791.970589 999999.999999
*  2023  8 17 13 20  0.00000000
PL39   2521.732787   1941.108328   7027.600786 999999.999999
VL39 -50756.260157  47290.562283   5145.774294 999999.999999
EOF
